[{"OBJECT_NAME":"SITRO-AIS-57","OBJECT_ID":"2025-313J","EPOCH":"2026-03-09T21:19:15.458304","MEAN_MOTION":15.21278824,"ECCENTRICITY":0.00157719,"INCLINATION":97.3995,"RA_OF_ASC_NODE":145.0956,"ARG_OF_PERICENTER":356.0145,"MEAN_ANOMALY":4.0962,"EPHEMERIS_TYPE":0,"CLASSIFICATION_TYPE":"U","NORAD_CAT_ID":67256,"ELEMENT_SET_NO":999,"REV_AT_EPOCH":1084,"BSTAR":0.00055394677,"MEAN_MOTION_DOT":0.00012366,"MEAN_MOTION_DDOT":0},{"OBJECT_NAME":"KOWSAR 1.5","OBJECT_ID":"2025-313S","EPOCH":"2026-03-09T21:18:16.087680","MEAN_MOTION":15.21036379,"ECCENTRICITY":0.00150628,"INCLINATION":97.409,"RA_OF_ASC_NODE":145.1794,"ARG_OF_PERICENTER":3.7915,"MEAN_ANOMALY":356.3432,"EPHEMERIS_TYPE":0,"CLASSIFICATION_TYPE":"U","NORAD_CAT_ID":67264,"ELEMENT_SET_NO":999,"REV_AT_EPOCH":1084,"BSTAR":0.00042645892,"MEAN_MOTION_DOT":9.43e-5,"MEAN_MOTION_DDOT":0}]
